{"type":"FeatureCollection","id":"876eb812-b74e-4e59-a816-0d2eaba56929","properties":{"id":"876eb812-b74e-4e59-a816-0d2eaba56929","name":"WR_417_Dillon_Dam","updated_date":"2026-09-11T18:25:19Z","time_created":"2026-09-11T18:25:19Z","notes":"","cover_photo_id":null,"deleted":false,"sync_to_mobile":null},"features":[{"type":"Feature","geometry":{"type":"Point","coordinates":[-105.14392,40.55235]},"id":"c802ae4aede00c331fb71fd6e99dbb3b","properties":{"id":"c802ae4aede00c331fb71fd6e99dbb3b","updated_date":"2026-09-11T20:53:38Z","time_created":"2026-09-09T21:35:33Z","deleted":false,"title":"T3_04","public":false,"is_active":true,"icon":"orange-pin.png","revision":1789160018,"notes":"","latitude":40.55235,"longitude":-105.14392,"elevation":1584,"attr":null,"track_id":"","order":null,"folder":"876eb812-b74e-4e59-a816-0d2eaba56929","marker_type":"pin","marker_color":"#FF9D00","marker_decoration":null,"sync_to_mobile":null,"cover_photo_id":null,"photos":[]}},{"type":"Feature","geometry":{"type":"Point","coordinates":[-105.14402,40.55247]},"id":"e77fa2107653c27457d13e569db4726e","properties":{"id":"e77fa2107653c27457d13e569db4726e","updated_date":"2026-09-11T20:54:28Z","time_created":"2026-09-09T21:39:41Z","deleted":false,"title":"T3_07","public":false,"is_active":true,"icon":"orange-pin.png","revision":1789160068,"notes":"","latitude":40.55247,"longitude":-105.14402,"elevation":1584,"attr":null,"track_id":"","order":null,"folder":"876eb812-b74e-4e59-a816-0d2eaba56929","marker_type":"pin","marker_color":"#FF9D00","marker_decoration":null,"sync_to_mobile":null,"cover_photo_id":null,"photos":[]}},{"type":"Feature","geometry":{"type":"Point","coordinates":[-105.14405,40.55252]},"id":"3d242f8f6c16ae061a567d1c668d63e3","properties":{"id":"3d242f8f6c16ae061a567d1c668d63e3","updated_date":"2026-09-11T20:54:46Z","time_created":"2026-09-09T21:43:10Z","deleted":false,"title":"T3_08","public":false,"is_active":true,"icon":"orange-pin.png","revision":1789160086,"notes":"","latitude":40.55252,"longitude":-105.14405,"elevation":1584,"attr":null,"track_id":"","order":null,"folder":"876eb812-b74e-4e59-a816-0d2eaba56929","marker_type":"pin","marker_color":"#FF9D00","marker_decoration":null,"sync_to_mobile":null,"cover_photo_id":null,"photos":[]}},{"type":"Feature","geometry":{"type":"Point","coordinates":[-105.14353063517603,40.55226929950092]},"id":"b663e554c8bab466939cbcc7c2aea858","properties":{"id":"b663e554c8bab466939cbcc7c2aea858","updated_date":"2026-09-11T20:14:38Z","time_created":"2026-09-09T19:49:01Z","deleted":false,"title":"T1_00","public":false,"is_active":true,"icon":"blue-pin-down.png","revision":1789157678,"notes":"","latitude":40.55226929950092,"longitude":-105.14353063517603,"elevation":1581,"attr":null,"track_id":"","order":null,"folder":"876eb812-b74e-4e59-a816-0d2eaba56929","marker_type":"pin","marker_color":"#0479FF","marker_decoration":null,"sync_to_mobile":null,"cover_photo_id":null,"photos":[]}},{"type":"Feature","geometry":{"type":"Point","coordinates":[-105.14357,40.55231]},"id":"4ee500449278121ebc7e95c0fb152d1a","properties":{"id":"4ee500449278121ebc7e95c0fb152d1a","updated_date":"2026-09-11T20:14:30Z","time_created":"2026-09-09T19:56:23Z","deleted":false,"title":"T1_01","public":false,"is_active":true,"icon":"blue-pin-down.png","revision":1789157670,"notes":"","latitude":40.55231,"longitude":-105.14357,"elevation":1581,"attr":null,"track_id":"","order":null,"folder":"876eb812-b74e-4e59-a816-0d2eaba56929","marker_type":"pin","marker_color":"#0479FF","marker_decoration":null,"sync_to_mobile":null,"cover_photo_id":null,"photos":[]}},{"type":"Feature","geometry":{"type":"Point","coordinates":[-105.14359,40.55234]},"id":"abd668d25c65f5459310d8b63acdf160","properties":{"id":"abd668d25c65f5459310d8b63acdf160","updated_date":"2026-09-11T20:14:23Z","time_created":"2026-09-09T20:04:01Z","deleted":false,"title":"T1_02","public":false,"is_active":true,"icon":"blue-pin-down.png","revision":1789157663,"notes":"","latitude":40.55234,"longitude":-105.14359,"elevation":1581,"attr":null,"track_id":"","order":null,"folder":"876eb812-b74e-4e59-a816-0d2eaba56929","marker_type":"pin","marker_color":"#0479FF","marker_decoration":null,"sync_to_mobile":null,"cover_photo_id":null,"photos":[]}},{"type":"Feature","geometry":{"type":"Point","coordinates":[-105.14365,40.5524]},"id":"063cbdbe5627c15f76746646ff8a2a1d","properties":{"id":"063cbdbe5627c15f76746646ff8a2a1d","updated_date":"2026-09-11T20:14:07Z","time_created":"2026-09-09T20:09:26Z","deleted":false,"title":"T1_04","public":false,"is_active":true,"icon":"blue-pin-down.png","revision":1789157647,"notes":"","latitude":40.5524,"longitude":-105.14365,"elevation":1581,"attr":null,"track_id":"","order":null,"folder":"876eb812-b74e-4e59-a816-0d2eaba56929","marker_type":"pin","marker_color":"#0479FF","marker_decoration":null,"sync_to_mobile":null,"cover_photo_id":null,"photos":[]}},{"type":"Feature","geometry":{"type":"Point","coordinates":[-105.1438,40.55255]},"id":"0d7a28439c32fb1af051713a4aa81aaf","properties":{"id":"0d7a28439c32fb1af051713a4aa81aaf","updated_date":"2026-09-11T20:13:31Z","time_created":"2026-09-09T20:24:08Z","deleted":false,"title":"T1_08","public":false,"is_active":true,"icon":"blue-pin-down.png","revision":1789157611,"notes":"","latitude":40.55255,"longitude":-105.1438,"elevation":1581,"attr":null,"track_id":"","order":null,"folder":"876eb812-b74e-4e59-a816-0d2eaba56929","marker_type":"pin","marker_color":"#0479FF","marker_decoration":null,"sync_to_mobile":null,"cover_photo_id":null,"photos":[]}},{"type":"Feature","geometry":{"type":"Point","coordinates":[-105.14383,40.55263]},"id":"75ec3916732eef28263a9c646a88e23a","properties":{"id":"75ec3916732eef28263a9c646a88e23a","updated_date":"2026-09-11T20:13:10Z","time_created":"2026-09-09T20:27:21Z","deleted":false,"title":"T1_10","public":false,"is_active":true,"icon":"blue-pin-down.png","revision":1789157590,"notes":"","latitude":40.55263,"longitude":-105.14383,"elevation":1581,"attr":null,"track_id":"","order":null,"folder":"876eb812-b74e-4e59-a816-0d2eaba56929","marker_type":"pin","marker_color":"#0479FF","marker_decoration":null,"sync_to_mobile":null,"cover_photo_id":null,"photos":[]}},{"type":"Feature","geometry":{"type":"Point","coordinates":[-105.14364,40.55228]},"id":"b7d1701151d8c903b7097e546bc3556b","properties":{"id":"b7d1701151d8c903b7097e546bc3556b","updated_date":"2026-09-11T20:08:09Z","time_created":"2026-09-09T20:47:21Z","deleted":false,"title":"T2_01","public":false,"is_active":true,"icon":"green-pin.png","revision":1789157289,"notes":"","latitude":40.55228,"longitude":-105.14364,"elevation":1581,"attr":null,"track_id":"","order":null,"folder":"876eb812-b74e-4e59-a816-0d2eaba56929","marker_type":"pin","marker_color":"#00A478","marker_decoration":null,"sync_to_mobile":null,"cover_photo_id":null,"photos":[]}},{"type":"Feature","geometry":{"type":"Point","coordinates":[-105.1436199895035,40.5522304005074]},"id":"eb1983f6cd71a843dd8784c7d4d4a615","properties":{"id":"eb1983f6cd71a843dd8784c7d4d4a615","updated_date":"2026-09-11T20:07:58Z","time_created":"2026-09-09T20:42:55Z","deleted":false,"title":"T2_00","public":false,"is_active":true,"icon":"green-pin.png","revision":1789157278,"notes":"","latitude":40.5522304005074,"longitude":-105.1436199895035,"elevation":1581,"attr":null,"track_id":"","order":null,"folder":"876eb812-b74e-4e59-a816-0d2eaba56929","marker_type":"pin","marker_color":"#00A478","marker_decoration":null,"sync_to_mobile":null,"cover_photo_id":null,"photos":[]}},{"type":"Feature","geometry":{"type":"Point","coordinates":[-105.14368,40.5523]},"id":"313e7dde74a22197f4dbfa7544da7cf5","properties":{"id":"313e7dde74a22197f4dbfa7544da7cf5","updated_date":"2026-09-11T20:08:21Z","time_created":"2026-09-09T20:56:15Z","deleted":false,"title":"T2_02","public":false,"is_active":true,"icon":"green-pin.png","revision":1789157301,"notes":"","latitude":40.5523,"longitude":-105.14368,"elevation":1582,"attr":null,"track_id":"","order":null,"folder":"876eb812-b74e-4e59-a816-0d2eaba56929","marker_type":"pin","marker_color":"#00A478","marker_decoration":null,"sync_to_mobile":null,"cover_photo_id":null,"photos":[]}},{"type":"Feature","geometry":{"type":"Point","coordinates":[-105.14376,40.55242]},"id":"86dd9c57f33df46f41f6c753daa4686d","properties":{"id":"86dd9c57f33df46f41f6c753daa4686d","updated_date":"2026-09-11T20:11:48Z","time_created":"2026-09-09T21:04:28Z","deleted":false,"title":"T2_05","public":false,"is_active":true,"icon":"green-pin.png","revision":1789157508,"notes":"","latitude":40.55242,"longitude":-105.14376,"elevation":1582,"attr":null,"track_id":"","order":null,"folder":"876eb812-b74e-4e59-a816-0d2eaba56929","marker_type":"pin","marker_color":"#00A478","marker_decoration":null,"sync_to_mobile":null,"cover_photo_id":null,"photos":[]}},{"type":"Feature","geometry":{"type":"Point","coordinates":[-105.14386,40.55257]},"id":"35af998fc5ec2bd54715854ad569ba8a","properties":{"id":"35af998fc5ec2bd54715854ad569ba8a","updated_date":"2026-09-11T20:12:27Z","time_created":"2026-09-09T21:15:31Z","deleted":false,"title":"T2_08","public":false,"is_active":true,"icon":"green-pin.png","revision":1789157547,"notes":"","latitude":40.55257,"longitude":-105.14386,"elevation":1581,"attr":null,"track_id":"","order":null,"folder":"876eb812-b74e-4e59-a816-0d2eaba56929","marker_type":"pin","marker_color":"#00A478","marker_decoration":null,"sync_to_mobile":null,"cover_photo_id":null,"photos":[]}},{"type":"Feature","geometry":{"type":"Point","coordinates":[-105.14378,40.55218]},"id":"99c09bb043597eca436137fcc5cb5776","properties":{"id":"99c09bb043597eca436137fcc5cb5776","updated_date":"2026-09-11T20:51:01Z","time_created":"2026-09-09T21:29:04Z","deleted":false,"title":"T3_00","public":false,"is_active":true,"icon":"orange-pin.png","revision":1789159861,"notes":"","latitude":40.55218,"longitude":-105.14378,"elevation":1584,"attr":null,"track_id":"","order":null,"folder":"876eb812-b74e-4e59-a816-0d2eaba56929","marker_type":"pin","marker_color":"#FF9D00","marker_decoration":null,"sync_to_mobile":null,"cover_photo_id":null,"photos":[]}},{"type":"Feature","geometry":{"type":"Point","coordinates":[-105.14395,40.55239]},"id":"da1e77cf452770fb46f231728006a9a2","properties":{"id":"da1e77cf452770fb46f231728006a9a2","updated_date":"2026-09-11T20:53:56Z","time_created":"2026-09-09T21:38:32Z","deleted":false,"title":"T3_05","public":false,"is_active":true,"icon":"orange-pin.png","revision":1789160036,"notes":"","latitude":40.55239,"longitude":-105.14395,"elevation":1584,"attr":null,"track_id":"","order":null,"folder":"876eb812-b74e-4e59-a816-0d2eaba56929","marker_type":"pin","marker_color":"#FF9D00","marker_decoration":null,"sync_to_mobile":null,"cover_photo_id":null,"photos":[]}},{"type":"Feature","geometry":{"type":"Point","coordinates":[-105.14398,40.55243]},"id":"ab89a081bab637d4e7d5bf9b51cf41be","properties":{"id":"ab89a081bab637d4e7d5bf9b51cf41be","updated_date":"2026-09-11T20:54:13Z","time_created":"2026-09-09T21:38:12Z","deleted":false,"title":"T3_06","public":false,"is_active":true,"icon":"orange-pin.png","revision":1789160053,"notes":"","latitude":40.55243,"longitude":-105.14398,"elevation":1584,"attr":null,"track_id":"","order":null,"folder":"876eb812-b74e-4e59-a816-0d2eaba56929","marker_type":"pin","marker_color":"#FF9D00","marker_decoration":null,"sync_to_mobile":null,"cover_photo_id":null,"photos":[]}},{"type":"Feature","geometry":{"type":"Point","coordinates":[-105.14409,40.55254]},"id":"a8bbe7735c1d87ac7cd7df5ea4e15c9b","properties":{"id":"a8bbe7735c1d87ac7cd7df5ea4e15c9b","updated_date":"2026-09-11T20:55:03Z","time_created":"2026-09-09T21:44:38Z","deleted":false,"title":"T3_09","public":false,"is_active":true,"icon":"orange-pin.png","revision":1789160103,"notes":"","latitude":40.55254,"longitude":-105.14409,"elevation":1585,"attr":null,"track_id":"","order":null,"folder":"876eb812-b74e-4e59-a816-0d2eaba56929","marker_type":"pin","marker_color":"#FF9D00","marker_decoration":null,"sync_to_mobile":null,"cover_photo_id":null,"photos":[]}},{"type":"Feature","geometry":{"type":"Point","coordinates":[-105.14407,40.55258]},"id":"7b0b6241c89bf863145777f3f8c6bc90","properties":{"id":"7b0b6241c89bf863145777f3f8c6bc90","updated_date":"2026-09-11T20:55:19Z","time_created":"2026-09-09T21:45:55Z","deleted":false,"title":"T3_10","public":false,"is_active":true,"icon":"orange-pin.png","revision":1789160119,"notes":"","latitude":40.55258,"longitude":-105.14407,"elevation":1584,"attr":null,"track_id":"","order":null,"folder":"876eb812-b74e-4e59-a816-0d2eaba56929","marker_type":"pin","marker_color":"#FF9D00","marker_decoration":null,"sync_to_mobile":null,"cover_photo_id":null,"photos":[]}},{"type":"Feature","geometry":{"type":"Point","coordinates":[-105.14387,40.55261]},"id":"8a3b2a8060fe63e51d3d346d0a42767c","properties":{"id":"8a3b2a8060fe63e51d3d346d0a42767c","updated_date":"2026-09-11T20:12:36Z","time_created":"2026-09-09T21:19:46Z","deleted":false,"title":"T2_09","public":false,"is_active":true,"icon":"green-pin.png","revision":1789157556,"notes":"","latitude":40.55261,"longitude":-105.14387,"elevation":1581,"attr":null,"track_id":"","order":null,"folder":"876eb812-b74e-4e59-a816-0d2eaba56929","marker_type":"pin","marker_color":"#00A478","marker_decoration":null,"sync_to_mobile":null,"cover_photo_id":null,"photos":[]}},{"type":"Feature","geometry":{"type":"Point","coordinates":[-105.14382,40.55223]},"id":"e309f8d5ca4cc8a0649c601d01d6de46","properties":{"id":"e309f8d5ca4cc8a0649c601d01d6de46","updated_date":"2026-09-11T20:51:20Z","time_created":"2026-09-09T21:31:00Z","deleted":false,"title":"T3_01","public":false,"is_active":true,"icon":"orange-pin.png","revision":1789159880,"notes":"","latitude":40.55223,"longitude":-105.14382,"elevation":1584,"attr":null,"track_id":"","order":null,"folder":"876eb812-b74e-4e59-a816-0d2eaba56929","marker_type":"pin","marker_color":"#FF9D00","marker_decoration":null,"sync_to_mobile":null,"cover_photo_id":null,"photos":[]}},{"type":"Feature","geometry":{"type":"Point","coordinates":[-105.14386,40.55227]},"id":"f14c6fb1ca454bf3261417dde0acdf94","properties":{"id":"f14c6fb1ca454bf3261417dde0acdf94","updated_date":"2026-09-11T20:51:37Z","time_created":"2026-09-09T21:33:05Z","deleted":false,"title":"T3_02","public":false,"is_active":true,"icon":"orange-pin.png","revision":1789159897,"notes":"","latitude":40.55227,"longitude":-105.14386,"elevation":1584,"attr":null,"track_id":"","order":null,"folder":"876eb812-b74e-4e59-a816-0d2eaba56929","marker_type":"pin","marker_color":"#FF9D00","marker_decoration":null,"sync_to_mobile":null,"cover_photo_id":null,"photos":[]}},{"type":"Feature","geometry":{"type":"Point","coordinates":[-105.14389,40.55231]},"id":"295541189ca88eba8368b05ea30a940b","properties":{"id":"295541189ca88eba8368b05ea30a940b","updated_date":"2026-09-11T20:53:23Z","time_created":"2026-09-09T21:34:30Z","deleted":false,"title":"T3_03","public":false,"is_active":true,"icon":"orange-pin.png","revision":1789160003,"notes":"","latitude":40.55231,"longitude":-105.14389,"elevation":1584,"attr":null,"track_id":"","order":null,"folder":"876eb812-b74e-4e59-a816-0d2eaba56929","marker_type":"pin","marker_color":"#FF9D00","marker_decoration":null,"sync_to_mobile":null,"cover_photo_id":null,"photos":[]}},{"type":"Feature","geometry":{"type":"Point","coordinates":[-105.14362,40.55237]},"id":"bf4ee6d52f7b8ebbc3d264a7e63f2330","properties":{"id":"bf4ee6d52f7b8ebbc3d264a7e63f2330","updated_date":"2026-09-11T20:14:15Z","time_created":"2026-09-09T20:06:14Z","deleted":false,"title":"T1_03","public":false,"is_active":true,"icon":"blue-pin-down.png","revision":1789157655,"notes":"","latitude":40.55237,"longitude":-105.14362,"elevation":1581,"attr":null,"track_id":"","order":null,"folder":"876eb812-b74e-4e59-a816-0d2eaba56929","marker_type":"pin","marker_color":"#0479FF","marker_decoration":null,"sync_to_mobile":null,"cover_photo_id":null,"photos":[]}},{"type":"Feature","geometry":{"type":"Point","coordinates":[-105.14369,40.55242]},"id":"1a819deb817b305c5df6f1bcd3bf4ea3","properties":{"id":"1a819deb817b305c5df6f1bcd3bf4ea3","updated_date":"2026-09-11T20:13:57Z","time_created":"2026-09-09T20:13:01Z","deleted":false,"title":"T1_05","public":false,"is_active":true,"icon":"blue-pin-down.png","revision":1789157637,"notes":"","latitude":40.55242,"longitude":-105.14369,"elevation":1581,"attr":null,"track_id":"","order":null,"folder":"876eb812-b74e-4e59-a816-0d2eaba56929","marker_type":"pin","marker_color":"#0479FF","marker_decoration":null,"sync_to_mobile":null,"cover_photo_id":null,"photos":[]}},{"type":"Feature","geometry":{"type":"Point","coordinates":[-105.14373,40.55247]},"id":"376d56723afcd1a702393af36983392e","properties":{"id":"376d56723afcd1a702393af36983392e","updated_date":"2026-09-11T20:13:49Z","time_created":"2026-09-09T20:14:55Z","deleted":false,"title":"T1_06","public":false,"is_active":true,"icon":"blue-pin-down.png","revision":1789157629,"notes":"","latitude":40.55247,"longitude":-105.14373,"elevation":1581,"attr":null,"track_id":"","order":null,"folder":"876eb812-b74e-4e59-a816-0d2eaba56929","marker_type":"pin","marker_color":"#0479FF","marker_decoration":null,"sync_to_mobile":null,"cover_photo_id":null,"photos":[]}},{"type":"Feature","geometry":{"type":"Point","coordinates":[-105.14376,40.55251]},"id":"8b2873581595ddb8f6b3315e42f0fbea","properties":{"id":"8b2873581595ddb8f6b3315e42f0fbea","updated_date":"2026-09-11T20:13:40Z","time_created":"2026-09-09T20:18:12Z","deleted":false,"title":"T1_07","public":false,"is_active":true,"icon":"blue-pin-down.png","revision":1789157620,"notes":"","latitude":40.55251,"longitude":-105.14376,"elevation":1581,"attr":null,"track_id":"","order":null,"folder":"876eb812-b74e-4e59-a816-0d2eaba56929","marker_type":"pin","marker_color":"#0479FF","marker_decoration":null,"sync_to_mobile":null,"cover_photo_id":null,"photos":[]}},{"type":"Feature","geometry":{"type":"Point","coordinates":[-105.14383,40.55259]},"id":"f8fe8f46c8a126d889fff5f6fa05b6b4","properties":{"id":"f8fe8f46c8a126d889fff5f6fa05b6b4","updated_date":"2026-09-11T20:13:19Z","time_created":"2026-09-09T20:25:32Z","deleted":false,"title":"T1_09","public":false,"is_active":true,"icon":"blue-pin-down.png","revision":1789157599,"notes":"","latitude":40.55259,"longitude":-105.14383,"elevation":1581,"attr":null,"track_id":"","order":null,"folder":"876eb812-b74e-4e59-a816-0d2eaba56929","marker_type":"pin","marker_color":"#0479FF","marker_decoration":null,"sync_to_mobile":null,"cover_photo_id":null,"photos":[]}},{"type":"Feature","geometry":{"type":"Point","coordinates":[-105.14371,40.55235]},"id":"a0219ad67d8129b878165013e86b6c57","properties":{"id":"a0219ad67d8129b878165013e86b6c57","updated_date":"2026-09-11T20:08:53Z","time_created":"2026-09-09T20:59:28Z","deleted":false,"title":"T2_03","public":false,"is_active":true,"icon":"green-pin.png","revision":1789157333,"notes":"","latitude":40.55235,"longitude":-105.14371,"elevation":1582,"attr":null,"track_id":"","order":null,"folder":"876eb812-b74e-4e59-a816-0d2eaba56929","marker_type":"pin","marker_color":"#00A478","marker_decoration":null,"sync_to_mobile":null,"cover_photo_id":null,"photos":[]}},{"type":"Feature","geometry":{"type":"Point","coordinates":[-105.14388,40.55265]},"id":"f438bac5e74250e63df094dff40a926b","properties":{"id":"f438bac5e74250e63df094dff40a926b","updated_date":"2026-09-11T20:12:58Z","time_created":"2026-09-09T21:20:59Z","deleted":false,"title":"T2_10","public":false,"is_active":true,"icon":"green-pin.png","revision":1789157578,"notes":"","latitude":40.55265,"longitude":-105.14388,"elevation":1581,"attr":null,"track_id":"","order":null,"folder":"876eb812-b74e-4e59-a816-0d2eaba56929","marker_type":"pin","marker_color":"#00A478","marker_decoration":null,"sync_to_mobile":null,"cover_photo_id":null,"photos":[]}},{"type":"Feature","geometry":{"type":"Point","coordinates":[-105.14385,40.55252]},"id":"1d7e276c1a3060c0b85d362c76c92739","properties":{"id":"1d7e276c1a3060c0b85d362c76c92739","updated_date":"2026-09-11T20:12:19Z","time_created":"2026-09-09T21:10:08Z","deleted":false,"title":"T2_07","public":false,"is_active":true,"icon":"green-pin.png","revision":1789157539,"notes":"","latitude":40.55252,"longitude":-105.14385,"elevation":1582,"attr":null,"track_id":"","order":null,"folder":"876eb812-b74e-4e59-a816-0d2eaba56929","marker_type":"pin","marker_color":"#00A478","marker_decoration":null,"sync_to_mobile":null,"cover_photo_id":null,"photos":[]}},{"type":"Feature","geometry":{"type":"Point","coordinates":[-105.1438,40.55247]},"id":"d87a861002776602b74697d83d6a0fd7","properties":{"id":"d87a861002776602b74697d83d6a0fd7","updated_date":"2026-09-11T20:11:58Z","time_created":"2026-09-09T21:06:13Z","deleted":false,"title":"T2_06","public":false,"is_active":true,"icon":"green-pin.png","revision":1789157518,"notes":"","latitude":40.55247,"longitude":-105.1438,"elevation":1582,"attr":null,"track_id":"","order":null,"folder":"876eb812-b74e-4e59-a816-0d2eaba56929","marker_type":"pin","marker_color":"#00A478","marker_decoration":null,"sync_to_mobile":null,"cover_photo_id":null,"photos":[]}},{"type":"Feature","geometry":{"type":"Point","coordinates":[-105.14374,40.55238]},"id":"2a80b15b816879d4fa211aee27c2d36e","properties":{"id":"2a80b15b816879d4fa211aee27c2d36e","updated_date":"2026-09-11T20:11:38Z","time_created":"2026-09-09T21:02:09Z","deleted":false,"title":"T2_04","public":false,"is_active":true,"icon":"green-pin.png","revision":1789157498,"notes":"","latitude":40.55238,"longitude":-105.14374,"elevation":1582,"attr":null,"track_id":"","order":null,"folder":"876eb812-b74e-4e59-a816-0d2eaba56929","marker_type":"pin","marker_color":"#00A478","marker_decoration":null,"sync_to_mobile":null,"cover_photo_id":null,"photos":[]}}]}